NORAD_CAT_ID,OBJECT_NAME,OBJECT_TYPE,EPOCH,MEAN_MOTION,ECCENTRICITY,INCLINATION,RA_OF_ASC_NODE,ARG_OF_PERICENTER,MEAN_ANOMALY,BSTAR,MEAN_MOTION_DOT,MEAN_MOTION_DDOT,TLE_LINE0,TLE_LINE1,TLE_LINE2,SEMIMAJOR_AXIS,PERIOD,APOGEE,PERIGEE,DECAYED
54070.0,STARLINK-5181,PAYLOAD,2023-02-10 00:47:57,15.08843064,0.0001852,53.2179,348.1508,79.2839,280.8361,0.00091333,0.00014279,0.0,0 STARLINK-5181,1 54070U 22136V   23041.03329990  .00014279  00000-0  91333-3 0  9990,2 54070  53.2179 348.1508 0001852  79.2839 280.8361 15.08843064 17216,6917.871,95.437,541.017,538.455,0.0
54070.0,STARLINK-5181,PAYLOAD,2023-02-10 05:34:06,15.08861509,0.0001389,53.2185,347.2565,83.3148,276.8003,0.0013973,0.00022033,0.0,0 STARLINK-5181,1 54070U 22136V   23041.23201579  .00022033  00000-0  13973-2 0  9994,2 54070  53.2185 347.2565 0001389  83.3148 276.8003 15.08861509 17728,6917.815,95.436,540.641,538.719,0.0
54070.0,STARLINK-5181,PAYLOAD,2023-02-10 19:52:34,15.08850852,0.0001133,53.218,344.5883,77.422,282.6899,0.00081951,0.00012782,0.0,0 STARLINK-5181,1 54070U 22136V   23041.82817918  .00012782  00000-0  81951-3 0  9991,2 54070  53.2180 344.5883 0001133  77.4220 282.6899 15.08850852 17332,6917.847,95.437,540.496,538.928,0.0
54070.0,STARLINK-5181,PAYLOAD,2023-02-11 02:14:07,15.08855802,6.27e-05,53.2181,343.3958,106.3235,253.7827,0.001803,0.00028536,0.0,0 STARLINK-5181,1 54070U 22136V   23042.09313712  .00028536  00000-0  18030-2 0  9995,2 54070  53.2181 343.3958 0000627 106.3235 253.7827 15.08855802 17855,6917.832,95.437,540.131,539.263,0.0
54070.0,STARLINK-5181,PAYLOAD,2023-02-11 03:49:30,15.08865993,0.0001053,53.2168,343.0992,92.329,267.7823,0.0021317,0.00033825,0.0,0 STARLINK-5181,1 54070U 22136V   23042.15937561  .00033825  00000-0  21317-2 0  9995,2 54070  53.2168 343.0992 0001053  92.3290 267.7823 15.08865993 17868,6917.801,95.436,540.394,538.937,0.0
54070.0,STARLINK-5181,PAYLOAD,2023-02-11 19:43:21,15.08862172,0.0001147,53.2183,340.1257,115.4167,244.6944,0.0014753,0.00023284,0.0,0 STARLINK-5181,1 54070U 22136V   23042.82177645  .00023284  00000-0  14753-2 0  9992,2 54070  53.2183 340.1257 0001147 115.4167 244.6944 15.08862172 17966,6917.813,95.436,540.471,538.884,0.0
54070.0,STARLINK-5181,PAYLOAD,2023-02-12 05:15:40,15.08864132,0.0001243,53.2179,338.3415,110.5591,249.5535,0.0015096,0.00023835,0.0,0 STARLINK-5181,1 54070U 22136V   23043.21921407  .00023835  00000-0  15096-2 0  9992,2 54070  53.2179 338.3415 0001243 110.5591 249.5535 15.08864132 18026,6917.807,95.436,540.532,538.812,0.0
54070.0,STARLINK-5181,PAYLOAD,2023-02-12 19:34:09,15.08838768,0.00018,53.2174,335.6662,95.3868,264.733,0.0013546,0.00021336,0.0,0 STARLINK-5181,1 54070U 22136V   23043.81538707  .00021336  00000-0  13546-2 0  9997,2 54070  53.2174 335.6662 0001800  95.3868 264.7330 15.08838768 18119,6917.884,95.438,540.994,538.504,0.0
54070.0,STARLINK-5181,PAYLOAD,2023-02-13 05:06:28,15.08835149,0.0001539,53.218,333.8825,88.5723,271.5445,0.0012966,0.00020405,0.0,0 STARLINK-5181,1 54070U 22136V   23044.21283081  .00020405  00000-0  12966-2 0  9995,2 54070  53.2180 333.8825 0001539  88.5723 271.5445 15.08835149 18179,6917.895,95.438,540.825,538.696,0.0
54070.0,STARLINK-5181,PAYLOAD,2023-02-14 11:18:47,15.08858396,7.18e-05,53.2184,328.2318,44.2296,315.8754,0.00077917,0.00012141,0.0,0 STARLINK-5181,1 54070U 22136V   23045.47138406  .00012141  00000-0  77917-3 0  9990,2 54070  53.2184 328.2318 0000718  44.2296 315.8754 15.08858396 18365,6917.824,95.436,540.186,539.192,0.0
54070.0,STARLINK-5181,PAYLOAD,2023-02-15 01:37:15,15.08855507,0.0001045,53.2191,325.5588,116.0984,244.0115,0.0003237,4.87e-05,0.0,0 STARLINK-5181,1 54070U 22136V   23046.06754445  .00004870  00000-0  32370-3 0  9997,2 54070  53.2191 325.5588 0001045 116.0984 244.0115 15.08855507 18453,6917.833,95.437,540.421,538.975,0.0
54070.0,STARLINK-5181,PAYLOAD,2023-02-15 11:09:34,15.08855821,6.75e-05,53.2177,323.7708,86.8229,273.284,0.00066592,0.00010331,0.0,0 STARLINK-5181,1 54070U 22136V   23046.46498132  .00010331  00000-0  66592-3 0  9991,2 54070  53.2177 323.7708 0000675  86.8229 273.2840 15.08855821 18037,6917.832,95.437,540.164,539.23,0.0
54070.0,STARLINK-5181,PAYLOAD,2023-02-15 22:17:16,15.08849446,0.0001495,53.2199,321.6913,93.2484,266.8679,0.00027263,4.055e-05,0.0,0 STARLINK-5181,1 54070U 22136V   23046.92866325  .00004055  00000-0  27263-3 0  9993,2 54070  53.2199 321.6913 0001495  93.2484 266.8679 15.08849446 18104,6917.852,95.437,540.751,538.682,0.0
54070.0,STARLINK-5181,PAYLOAD,2023-02-15 23:52:39,15.0885709,0.0001361,53.2184,321.3925,116.3718,243.7414,0.00041872,6.385e-05,0.0,0 STARLINK-5181,1 54070U 22136V   23046.99489830  .00006385  00000-0  41872-3 0  9992,2 54070  53.2184 321.3925 0001361 116.3718 243.7414 15.08857090 18595,6917.828,95.436,540.635,538.752,0.0
54070.0,STARLINK-5181,PAYLOAD,2023-02-16 11:00:21,15.0884917,0.0001072,53.218,319.3105,93.6001,266.5113,0.00021531,3.141e-05,0.0,0 STARLINK-5181,1 54070U 22136V   23047.45857976  .00003141  00000-0  21531-3 0  9991,2 54070  53.2180 319.3105 0001072  93.6001 266.5113 15.08849170 18666,6917.852,95.437,540.459,538.976,0.0
54070.0,STARLINK-5181,PAYLOAD,2023-02-16 22:08:03,15.08829522,0.0001314,53.2183,317.2301,103.4363,256.6776,-0.0001559,-2.767e-05,0.0,0 STARLINK-5181,1 54070U 22136V   23047.92226744 -.00002767  00000-0 -15590-3 0  9999,2 54070  53.2183 317.2301 0001314 103.4363 256.6776 15.08829522 18253,6917.912,95.438,540.686,538.868,0.0
54070.0,STARLINK-5181,PAYLOAD,2023-02-16 23:43:26,15.08832436,0.0001398,53.219,316.9324,120.3708,239.7422,-1.3372e-05,-5.01e-06,0.0,0 STARLINK-5181,1 54070U 22136V   23047.98850687 -.00000501  00000-0 -13372-4 0  9995,2 54070  53.2190 316.9324 0001398 120.3708 239.7422 15.08832436 18747,6917.904,95.438,540.736,538.801,0.0
54070.0,STARLINK-5181,PAYLOAD,2023-02-17 04:29:36,15.08843261,8.51e-05,53.2169,316.0385,122.1851,237.9224,0.000348,5.255e-05,0.0,0 STARLINK-5181,1 54070U 22136V   23048.18722326  .00005255  00000-0  34800-3 0  9993,2 54070  53.2169 316.0385 0000851 122.1851 237.9224 15.08843261 18774,6917.87,95.437,540.324,539.147,0.0
54070.0,STARLINK-5181,PAYLOAD,2023-02-17 17:12:42,15.08816881,0.0001602,53.2164,313.6584,90.3823,269.7352,-0.00015746,-2.792e-05,0.0,0 STARLINK-5181,1 54070U 22136V   23048.71716186 -.00002792  00000-0 -15746-3 0  9992,2 54070  53.2164 313.6584 0001602  90.3823 269.7352 15.08816881 18855,6917.951,95.439,540.924,538.708,0.0
54070.0,STARLINK-5181,PAYLOAD,2023-02-18 01:09:39,15.08801215,8.36e-05,53.2178,312.1727,107.0587,253.0497,-0.00034593,-5.783e-05,0.0,0 STARLINK-5181,1 54070U 22136V   23049.04837272 -.00005783  00000-0 -34593-3 0  9993,2 54070  53.2178 312.1727 0000836 107.0587 253.0497 15.08801215 18901,6917.999,95.44,540.442,539.286,0.0
54070.0,STARLINK-5181,PAYLOAD,2023-02-18 23:25:02,15.08857806,0.0001047,53.2174,308.0114,95.445,264.6662,0.00084925,0.0001326,0.0,0 STARLINK-5181,1 54070U 22136V   23049.97572260  .00013260  00000-0  84925-3 0  9999,2 54070  53.2174 308.0114 0001047  95.4450 264.6662 15.08857806 19040,6917.826,95.436,540.415,538.967,0.0
54070.0,STARLINK-5181,PAYLOAD,2023-02-19 16:54:16,15.0885022,0.000104,53.2176,304.7381,100.9956,259.1153,0.00044881,6.864e-05,0.0,0 STARLINK-5181,1 54070U 22136V   23050.70436175  .00006864  00000-0  44881-3 0  9995,2 54070  53.2176 304.7381 0001040 100.9956 259.1153 15.08850220 19156,6917.849,95.437,540.434,538.995,0.0
54070.0,STARLINK-5181,PAYLOAD,2023-02-20 02:26:35,15.08853315,9e-05,53.2171,302.955,79.362,280.7473,0.00051761,7.962e-05,0.0,0 STARLINK-5181,1 54070U 22136V   23051.10179957  .00007962  00000-0  51761-3 0  9997,2 54070  53.2171 302.9550 0000900  79.3620 280.7473 15.08853315 18736,6917.84,95.437,540.327,539.082,0.0
54070.0,STARLINK-5181,PAYLOAD,2023-02-20 23:06:35,15.08857954,0.000129,53.2172,299.0907,83.3437,276.7702,-1.4962e-05,-5.26e-06,0.0,0 STARLINK-5181,1 54070U 22136V   23051.96290859 -.00000526  00000-0 -14962-4 0  9990,2 54070  53.2172 299.0907 0001290  83.3437 276.7702 15.08857954 19344,6917.826,95.436,540.583,538.798,0.0
54070.0,STARLINK-5181,PAYLOAD,2023-02-21 19:46:35,15.08851088,0.0001265,53.2167,295.2243,78.3706,281.7428,5.9657e-05,6.62e-06,0.0,0 STARLINK-5181,1 54070U 22136V   23052.82402674  .00000662  00000-0  59657-4 0  9995,2 54070  53.2167 295.2243 0001265  78.3706 281.7428 15.08851088 19471,6917.846,95.437,540.587,538.836,0.0
54070.0,STARLINK-5181,PAYLOAD,2023-02-21 21:21:58,15.08853803,0.0001318,53.2167,294.9272,78.3547,281.7593,0.0001138,1.524e-05,0.0,0 STARLINK-5181,1 54070U 22136V   23052.89026564  .00001524  00000-0  11380-3 0  9990,2 54070  53.2167 294.9272 0001318  78.3547 281.7593 15.08853803 19000,6917.838,95.437,540.615,538.791,0.0
54070.0,STARLINK-5181,PAYLOAD,2023-02-22 02:08:08,15.08862893,0.0001307,53.2164,294.0348,80.5266,279.5873,0.00046946,7.196e-05,0.0,0 STARLINK-5181,1 54070U 22136V   23053.08898199  .00007196  00000-0  46946-3 0  9990,2 54070  53.2164 294.0348 0001307  80.5266 279.5873 15.08862893 19514,6917.81,95.436,540.58,538.771,0.0
54070.0,STARLINK-5181,PAYLOAD,2023-02-22 16:26:36,15.08832223,0.0001462,53.216,291.3558,89.6817,270.4342,-4.5348e-05,-1.009e-05,0.0,0 STARLINK-5181,1 54070U 22136V   23053.68515029 -.00001009  00000-0 -45348-4 0  9999,2 54070  53.2160 291.3558 0001462  89.6817 270.4342 15.08832223 19602,6917.904,95.438,540.781,538.758,0.0
54070.0,STARLINK-5181,PAYLOAD,2023-02-22 22:48:10,15.08826349,0.0001298,53.2161,290.1692,71.8841,288.2293,-9.2337e-05,-1.757e-05,0.0,0 STARLINK-5181,1 54070U 22136V   23053.95011599 -.00001757  00000-0 -92337-4 0  9992,2 54070  53.2161 290.1692 0001298  71.8841 288.2293 15.08826349 19161,6917.922,95.438,540.685,538.889,0.0
54070.0,STARLINK-5181,PAYLOAD,2023-02-23 14:42:01,15.08847255,0.0001345,53.2156,287.1953,73.9745,286.1396,0.00041583,6.337e-05,0.0,0 STARLINK-5181,1 54070U 22136V   23054.61251459  .00006337  00000-0  41583-3 0  9990,2 54070  53.2156 287.1953 0001345  73.9745 286.1396 15.08847255 19261,6917.858,95.437,540.654,538.793,0.0
